1 29601U 06052A   21078.37272634  .00000004  00000-0  00000-0 0  9997
2 29601  55.8359 290.0237 0082479  67.3662 293.5344  2.00551933104988
1 29601U 06052A   21081.36440451  .00000029  00000-0  00000+0 0  9990
2 29601  55.8334 289.9054 0082543  67.5515 293.3566  2.00551802105098
1 29601U 06052A   21081.36440451  .00000029  00000-0  00000-0 0  9991
2 29601  55.8334 289.9054 0082543  67.5515 293.3566  2.00551802105043
1 29601U 06052A   21081.86300599  .00000031  00000-0  00000+0 0  9996
2 29601  55.8335 289.8856 0082628  67.3365 293.5722  2.00552104105107
1 29601U 06052A   21081.86300599  .00000031  00000-0  00000-0 0  9997
2 29601  55.8335 289.8856 0082628  67.3365 293.5722  2.00552104105051
1 29601U 06052A   21082.86022674  .00000033  00000-0  00000-0 0  9995
2 29601  55.8325 289.8460 0082569  67.4540 293.4566  2.00552160105070
1 29601U 06052A   21084.35605457  .00000031  00000-0  00000-0 0  9995
2 29601  55.8318 289.7868 0082579  67.4589 293.4517  2.00552210105103
1 29601U 06052A   21085.35326954  .00000027  00000-0  00000-0 0  9993
2 29601  55.8313 289.7473 0082556  67.5651 293.3436  2.00552263105125
1 29601U 06052A   21086.84908692  .00000016  00000-0  00000-0 0  9991
2 29601  55.8302 289.6881 0082546  67.6408 293.2613  2.00552325105153
1 29601U 06052A   21087.34769124  .00000013  00000-0  00000-0 0  9999
2 29601  55.8299 289.6684 0082539  67.6550 293.2442  2.00552365105164
1 29601U 06052A   21088.34490033  .00000006  00000-0  00000-0 0  9992
2 29601  55.8295 289.6289 0082543  67.6672 293.2259  2.00552388105184
1 29601U 06052A   21091.33655421  .00000001  00000-0  00000-0 0  9994
2 29601  55.8265 289.5106 0082608  67.8166 293.0652  2.00552235105298
1 29601U 06052A   21094.32818394  .00000007  00000-0  00000+0 0  9991
2 29601  55.8246 289.3922 0082573  67.8924 292.9914  2.00552810105359
1 29601U 06052A   21094.32818394  .00000007  00000-0  00000-0 0  9992
2 29601  55.8246 289.3922 0082573  67.8924 292.9914  2.00552810105304
1 29601U 06052A   21095.32540112  .00000006  00000-0  00000-0 0  9992
2 29601  55.8236 289.3528 0082561  67.9593 292.9261  2.00552894105324
1 29601U 06052A   21099.31424975 -.00000025  00000-0  00000-0 0  9995
2 29601  55.8210 289.1951 0082584  68.0073 292.8724  2.00553087105401
1 29601U 06052A   21099.81285133 -.00000028  00000-0  00000-0 0  9994
2 29601  55.8191 289.1753 0082657  67.8953 292.9825  2.00553313105410
1 29601U 06052A   21103.80168387 -.00000028  00000-0  00000+0 0  9999
2 29601  55.8137 289.0176 0082527  68.2094 292.6558  2.00553631105542
1 29601U 06052A   21104.30028757 -.00000024  00000-0  00000-0 0  9998
2 29601  55.8157 288.9980 0082587  68.1121 292.7526  2.00553671105507
1 29601U 06052A   21106.29471044 -.00000006  00000-0  00000-0 0  9999
2 29601  55.8143 288.9193 0082587  68.1061 292.7596  2.00553814105541
1 29601U 06052A   21107.79053097  .00000006  00000-0  00000-0 0  9998
2 29601  55.8134 288.8602 0082586  68.1326 292.7368  2.00553863105572
1 29601U 06052A   21108.78774537  .00000011  00000-0  00000-0 0  9993
2 29601  55.8138 288.8208 0082592  68.1761 292.6963  2.00553919105592
1 29601U 06052A   21110.78216989  .00000014  00000-0  00000-0 0  9991
2 29601  55.8086 288.7420 0082640  68.1832 292.6934  2.00554027105636
1 29601U 06052A   21112.27798219  .00000009  00000-0  00000-0 0  9992
2 29601  55.8079 288.6828 0082656  68.1802 292.6955  2.00554068105664
1 29601U 06052A   21114.27238806 -.00000005  00000-0  00000-0 0  9992
2 29601  55.8116 288.6040 0082621  68.2934 292.5751  2.00554195105700
1 29601U 06052A   21115.26958822 -.00000012  00000-0  00000-0 0  9997
2 29601  55.8093 288.5645 0082612  68.3348 292.5283  2.00554267105726
1 29601U 06052A   21117.76259250 -.00000021  00000-0  00000+0 0  9992
2 29601  55.8080 288.4659 0082613  68.3668 292.4855  2.00554378105820
1 29601U 06052A   21117.76259250 -.00000021  00000-0  00000-0 0  9993
2 29601  55.8080 288.4659 0082613  68.3668 292.4855  2.00554378105774
